[{"OBJECT_NAME":"KSM1-B","OBJECT_ID":"2020-081K","EPOCH":"2026-03-09T23:03:07.817760","MEAN_MOTION":15.22983333,"ECCENTRICITY":0.00044009,"INCLINATION":36.9029,"RA_OF_ASC_NODE":318.3288,"ARG_OF_PERICENTER":174.9385,"MEAN_ANOMALY":185.1408,"EPHEMERIS_TYPE":0,"CLASSIFICATION_TYPE":"U","NORAD_CAT_ID":46914,"ELEMENT_SET_NO":999,"REV_AT_EPOCH":29704,"BSTAR":0.00033094478,"MEAN_MOTION_DOT":7.872e-5,"MEAN_MOTION_DDOT":0},{"OBJECT_NAME":"TIANYI E","OBJECT_ID":"2025-103E","EPOCH":"2026-03-09T23:53:00.366432","MEAN_MOTION":15.21814724,"ECCENTRICITY":0.00039842,"INCLINATION":97.3824,"RA_OF_ASC_NODE":143.2002,"ARG_OF_PERICENTER":141.8927,"MEAN_ANOMALY":218.2592,"EPHEMERIS_TYPE":0,"CLASSIFICATION_TYPE":"U","NORAD_CAT_ID":64052,"ELEMENT_SET_NO":999,"REV_AT_EPOCH":4501,"BSTAR":0.00058098281,"MEAN_MOTION_DOT":0.0001314,"MEAN_MOTION_DDOT":0}]
